H1 CPF  1  DLR 2022 05 27 10  6472 technosat            
H2  1704205 6203    42829 2022 05 27 00 00 00 2022 06 03 00 00 00    60 1 1  0 0 0
H9
10 0 59729  57600.000000  0       1149734.972       3287497.864       6023233.621
10 0 59729  57660.000000  0       1399148.267       3594605.100       5791707.387
10 0 59729  57720.000000  0       1645263.794       3884361.530       5535541.423
10 0 59729  57780.000000  0       1886885.330       4155578.194       5255826.671
10 0 59729  57840.000000  0       2122825.806       4407155.172       4953754.342
10 0 59729  57900.000000  0       2351913.184       4638086.192       4630610.814
10 0 59729  57960.000000  0       2572996.270       4847462.737       4287772.163
10 0 59729  58020.000000  0       2784950.504       5034477.744       3926698.336
10 0 59729  58080.000000  0       2986683.656       5198428.837       3548927.012
10 0 59729  58140.000000  0       3177141.551       5338721.264       3156067.085
10 0 59729  58200.000000  0       3355313.663       5454870.269       2749791.569
10 0 59729  58260.000000  0       3520238.452       5546502.706       2331830.139
10 0 59729  58320.000000  0       3671008.403       5613358.046       1903961.622
10 0 59729  58380.000000  0       3806774.848       5655289.007       1468006.320
10 0 59729  58440.000000  0       3926752.567       5672261.720       1025818.053
10 0 59729  58500.000000  0       4030224.128       5664355.239        579275.948
10 0 59729  58560.000000  0       4116543.857       5631760.357        130276.172
10 0 59729  58620.000000  0       4185141.456       5574777.967       -319276.294
10 0 59729  58680.000000  0       4235525.267       5493816.952       -767475.918
10 0 59729  58740.000000  0       4267285.184       5389391.546      -1212424.879
10 0 59729  58800.000000  0       4280095.149       5262118.182      -1652241.291
10 0 59729  58860.000000  0       4273715.206       5112711.864      -2085067.273
10 0 59729  58920.000000  0       4247993.155       4941982.126      -2509076.901
10 0 59729  58980.000000  0       4202865.755       4750828.557      -2922483.974
10 0 59729  59040.000000  0       4138359.473       4540235.900      -3323549.550
10 0 59729  59100.000000  0       4054590.799       4311268.802      -3710589.165
10 0 59729  59160.000000  0       3951766.170       4065066.278      -4081979.724
10 0 59729  59220.000000  0       3830181.504       3802835.938      -4436166.128
10 0 59729  59280.000000  0       3690221.297       3525847.917      -4771667.593
10 0 59729  59340.000000  0       3532357.286       3235428.594      -5087083.573
10 0 59729  59400.000000  0       3357146.702       2932954.149      -5381099.288
10 0 59729  59460.000000  0       3165230.148       2619843.967      -5652490.838
10 0 59729  59520.000000  0       2957329.165       2297553.973      -5900129.914
10 0 59729  59580.000000  0       2734243.398       1967569.861      -6122988.144
10 0 59729  59640.000000  0       2496847.402       1631400.271      -6320140.925
10 0 59729  59700.000000  0       2246087.173       1290570.015      -6490770.836
10 0 59729  59760.000000  0       1982976.386        946613.295      -6634170.636
10 0 59729  59820.000000  0       1708592.392        601067.010      -6749745.854
10 0 59729  59880.000000  0       1424071.915        255464.110      -6837017.067
10 0 59729  59940.000000  0       1130606.382        -88673.036      -6895621.749
10 0 59729  60000.000000  0        829437.013       -429839.181      -6925315.537
10 0 59729  60060.000000  0        521849.738       -766552.541      -6925973.071
10 0 59729  60120.000000  0        209169.928      -1097360.984      -6897588.469
10 0 59729  60180.000000  0       -107243.083      -1420848.043      -6840275.377
10 0 59729  60240.000000  0       -426001.663      -1735638.749      -6754266.681
10 0 59729  60300.000000  0       -745695.789      -2040405.344      -6639913.795
10 0 59729  60360.000000  0      -1064899.092      -2333872.796      -6497685.441
10 0 59729  60420.000000  0      -1382175.020      -2614824.067      -6328165.966
10 0 59729  60480.000000  0      -1696083.083      -2882105.075      -6132053.257
10 0 59729  60540.000000  0      -2005185.207      -3134629.421      -5910156.277
10 0 59729  60600.000000  0      -2308052.181      -3371382.862      -5663392.176
10 0 59729  60660.000000  0      -2603270.193      -3591427.513      -5392782.992
10 0 59729  60720.000000  0      -2889447.440      -3793905.769      -5099451.848
10 0 59729  60780.000000  0      -3165220.713      -3978043.824      -4784618.657
10 0 59729  60840.000000  0      -3429261.906      -4143154.837      -4449595.429
10 0 59729  60900.000000  0      -3680284.472      -4288641.711      -4095781.163
10 0 59729  60960.000000  0      -3917049.780      -4413999.501      -3724656.360
10 0 59729  61020.000000  0      -4138373.383      -4518817.422      -3337777.107
10 0 59729  61080.000000  0      -4343131.097      -4602780.416      -2936768.752
10 0 59729  61140.000000  0      -4530264.867      -4665670.258      -2523319.226
10 0 59729  61200.000000  0      -4698788.398      -4707366.214      -2099172.041
10 0 59729  61260.000000  0      -4847792.516      -4727845.253      -1666118.964
10 0 59729  61320.000000  0      -4976450.196      -4727181.757      -1225992.395
10 0 59729  61380.000000  0      -5084021.233      -4705546.770       -780657.539
10 0 59729  61440.000000  0      -5169856.567      -4663206.798       -332004.353
10 0 59729  61500.000000  0      -5233402.178      -4600522.119        118060.709
10 0 59729  61560.000000  0      -5274202.519      -4517944.605        567623.073
10 0 59729  61620.000000  0      -5291903.478      -4416015.079       1014768.525
10 0 59729  61680.000000  0      -5286254.811      -4295360.200       1457591.697
10 0 59729  61740.000000  0      -5257112.059      -4156688.917       1894204.506
10 0 59729  61800.000000  0      -5204437.968      -4000788.530       2322744.522
10 0 59729  61860.000000  0      -5128303.346      -3828520.357       2741383.228
10 0 59729  61920.000000  0      -5028887.378      -3640815.066       3148334.087
10 0 59729  61980.000000  0      -4906477.441      -3438667.696       3541860.431
10 0 59729  62040.000000  0      -4761468.354      -3223132.364       3920283.159
10 0 59729  62100.000000  0      -4594361.033      -2995316.669       4281988.117
10 0 59729  62160.000000  0      -4405760.618      -2756375.888       4625433.081
10 0 59729  62220.000000  0      -4196374.145      -2507507.031       4949154.369
10 0 59729  62280.000000  0      -3967007.738      -2249942.752       5251773.104
10 0 59729  62340.000000  0      -3718563.344      -1984945.167       5532001.086
10 0 59729  62400.000000  0      -3452035.027      -1713799.598       5788646.287
10 0 59729  62460.000000  0      -3168504.774      -1437808.213       6020617.958
10 0 59729  62520.000000  0      -2869137.852      -1158283.639       6226931.191
10 0 59729  62580.000000  0      -2555177.788       -876542.582       6406711.016
10 0 59729  62640.000000  0      -2227940.954       -593899.478       6559195.961
10 0 59729  62700.000000  0      -1888810.816       -311660.302       6683741.055
10 0 59729  62760.000000  0      -1539231.942        -31116.563       6779820.346
10 0 59729  62820.000000  0      -1180703.772        246460.609       6847029.019
10 0 59729  62880.000000  0       -814774.090        519826.270       6885085.012
10 0 59729  62940.000000  0       -443032.257        787767.285       6893830.118
10 0 59729  63000.000000  0        -67102.233       1049107.753       6873230.558
10 0 59729  63060.000000  0        311364.569       1302714.198       6823377.102
10 0 59729  63120.000000  0        690696.632       1547500.563       6744484.651
10 0 59729  63180.000000  0       1069209.786       1782432.900       6636891.240
10 0 59729  63240.000000  0       1445214.723       2006533.740       6501056.604
10 0 59729  63300.000000  0       1817024.584       2218886.184       6337560.256
10 0 59729  63360.000000  0       2182962.566       2418637.683       6147099.111
10 0 59729  63420.000000  0       2541369.586       2605003.543       5930484.645
10 0 59729  63480.000000  0       2890611.944       2777270.068       5688639.536
10 0 59729  63540.000000  0       3229088.927       2934797.362       5422593.790
10 0 59729  63600.000000  0       3555240.281       3077021.749       5133480.366
10 0 59729  63660.000000  0       3867553.467       3203457.828       4822530.355
10 0 59729  63720.000000  0       4164570.746       3313700.104       4491067.823
10 0 59729  63780.000000  0       4444896.167       3407424.212       4140504.349
10 0 59729  63840.000000  0       4707202.496       3484387.914       3772333.070
10 0 59729  63900.000000  0       4950237.755       3544431.598       3388122.025
10 0 59729  63960.000000  0       5172831.226       3587478.177       2989507.337
10 0 59729  64020.000000  0       5373899.202       3613532.708       2578186.213
10 0 59729  64080.000000  0       5552450.372       3622681.616       2155909.558
10 0 59729  64140.000000  0       5707590.805       3615091.516       1724474.341
10 0 59729  64200.000000  0       5838528.462       3591007.616       1285715.718
10 0 59729  64260.000000  0       5944577.232       3550751.725        841498.973
10 0 59729  64320.000000  0       6025160.433       3494719.845        393711.312
10 0 59729  64380.000000  0       6079813.746       3423379.408        -55746.391
10 0 59729  64440.000000  0       6108187.662       3337266.187       -504967.867
10 0 59729  64500.000000  0       6110049.387       3236980.853       -952049.767
10 0 59729  64560.000000  0       6085284.097       3123185.214      -1395099.913
10 0 59729  64620.000000  0       6033895.638       2996598.252      -1832245.389
10 0 59729  64680.000000  0       5956006.727       2857991.938      -2261640.590
10 0 59729  64740.000000  0       5851858.547       2708186.757      -2681475.097
99
